*******************************************************************************
Ephemeris / WWW_USER Mon Jul 15 19:26:27 2024 Pasadena, USA      / Horizons    
*******************************************************************************
Target body name: (2018 RA1)                      {source: JPL#6}
Center body name: Earth (399)                     {source: DE441}
Center-site name: Gemini South Obs., Cerro Pachon
*******************************************************************************
Start time      : A.D. 2018-Dec-23 23:54:00.0000 UT      
Stop  time      : A.D. 2018-Dec-24 09:30:00.0000 UT      
Step-size       : 1 minutes
*******************************************************************************
Target pole/equ : undefined
Target radii    : undefined                                                    
Center geodetic : 289.2634, -30.2406227, 2.71233  {E-lon(deg),Lat(deg),Alt(km)}
Center cylindric: 289.2634,5517.21435,-3194.81213 {E-lon(deg),Dxy(km),Dz(km)}
Center pole/equ : ITRF93                          {East-longitude positive}
Center radii    : 6378.137, 6378.137, 6356.752 km {Equator_a, b, pole_c}       
Target primary  : Sun
Vis. interferer : MOON (R_eq= 1737.400) km        {source: DE441}
Rel. light bend : Sun                             {source: DE441}
Rel. lght bnd GM: 1.3271E+11 km^3/s^2                                          
Small-body perts: Yes                             {source: SB441-N16}
Atmos refraction: NO (AIRLESS)
RA format       : HMS
Time format     : CAL 
Calendar mode   : Mixed Julian/Gregorian
RTS-only print  : NO       
EOP file        : eop.240715.p241008                                           
EOP coverage    : DATA-BASED 1962-JAN-20 TO 2024-JUL-15. PREDICTS-> 2024-OCT-07
Units conversion: 1 au= 149597870.700 km, c= 299792.458 km/s, 1 day= 86400.0 s 
Table cut-offs 1: Elevation (-90.0deg=NO ),Airmass (>38.000=NO), Daylight (YES)
Table cut-offs 2: Solar elongation (  0.0,180.0=NO ),Local Hour Angle( 0.0=NO )
Table cut-offs 3: RA/DEC angular rate (     0.0=NO )                           
*******************************************************************************
Initial IAU76/J2000 heliocentric ecliptic osculating elements (au, days, deg.):
  EPOCH=  2458369.5 ! 2018-Sep-08.00 (TDB)         Residual RMS= .21275        
   EC= .3232115344739424   QR= .7703453101153647   TP= 2458436.6763547547      
   OM= 166.2054176892707   W=  269.7217787981747   IN= 8.763099478405824       
  Equivalent ICRF heliocentric cartesian coordinates (au, au/d):
   X= 9.899686155013647E-01  Y=-2.468208982240139E-01  Z=-1.030323866474361E-01
  VX=-9.411283005844916E-04 VY= 1.717513364149167E-02 VZ= 4.613440841260365E-03
Asteroid physical parameters (km, seconds, rotational period in hours):        
   GM= n.a.                RAD= n.a.               ROTPER= n.a.                
   H= 26.4                 G= .150                 B-V= n.a.                   
                           ALBEDO= n.a.            STYP= n.a.                  
*******************************************************************************
 Date__(UT)__HR:MN     R.A._________(ICRF)_________DEC
******************************************************
$$SOE
 2018-Dec-24 04:00  m  13 51 49.366254 -17 00 59.22311
 2018-Dec-24 04:01  m  13 51 49.495998 -17 00 59.36372
 2018-Dec-24 04:02  m  13 51 49.625731 -17 00 59.50435
 2018-Dec-24 04:03  m  13 51 49.755453 -17 00 59.64502
 2018-Dec-24 04:04  m  13 51 49.885162 -17 00 59.78572
 2018-Dec-24 04:05  m  13 51 50.014860 -17 00 59.92646
 2018-Dec-24 04:06  m  13 51 50.144547 -17 01 00.06722
 2018-Dec-24 04:07  m  13 51 50.274222 -17 01 00.20802
 2018-Dec-24 04:08  m  13 51 50.403885 -17 01 00.34884
 2018-Dec-24 04:09  m  13 51 50.533536 -17 01 00.48970
 2018-Dec-24 04:10  m  13 51 50.663176 -17 01 00.63059
 2018-Dec-24 04:11  m  13 51 50.792803 -17 01 00.77151
 2018-Dec-24 04:12  m  13 51 50.922419 -17 01 00.91246
 2018-Dec-24 04:13  m  13 51 51.052023 -17 01 01.05344
 2018-Dec-24 04:14  m  13 51 51.181615 -17 01 01.19445
 2018-Dec-24 04:15  m  13 51 51.311195 -17 01 01.33549
 2018-Dec-24 04:16  m  13 51 51.440763 -17 01 01.47656
 2018-Dec-24 04:17  m  13 51 51.570319 -17 01 01.61766
 2018-Dec-24 04:18  m  13 51 51.699863 -17 01 01.75879
 2018-Dec-24 04:19  m  13 51 51.829395 -17 01 01.89995
 2018-Dec-24 04:20  m  13 51 51.958914 -17 01 02.04114
 2018-Dec-24 04:21  m  13 51 52.088422 -17 01 02.18235
 2018-Dec-24 04:22  m  13 51 52.217917 -17 01 02.32360
 2018-Dec-24 04:23  m  13 51 52.347400 -17 01 02.46487
 2018-Dec-24 04:24  m  13 51 52.476871 -17 01 02.60617
 2018-Dec-24 04:25  m  13 51 52.606330 -17 01 02.74749
 2018-Dec-24 04:26  m  13 51 52.735776 -17 01 02.88885
 2018-Dec-24 04:27  m  13 51 52.865210 -17 01 03.03023
 2018-Dec-24 04:28  m  13 51 52.994632 -17 01 03.17164
 2018-Dec-24 04:29  m  13 51 53.124041 -17 01 03.31307
 2018-Dec-24 04:30  m  13 51 53.253438 -17 01 03.45454
 2018-Dec-24 04:31  m  13 51 53.382822 -17 01 03.59602
 2018-Dec-24 04:32  m  13 51 53.512194 -17 01 03.73754
 2018-Dec-24 04:33  m  13 51 53.641553 -17 01 03.87908
 2018-Dec-24 04:34  m  13 51 53.770900 -17 01 04.02065
 2018-Dec-24 04:35  m  13 51 53.900234 -17 01 04.16224
 2018-Dec-24 04:36  m  13 51 54.029555 -17 01 04.30385
 2018-Dec-24 04:37  m  13 51 54.158864 -17 01 04.44549
 2018-Dec-24 04:38  m  13 51 54.288160 -17 01 04.58716
 2018-Dec-24 04:39  m  13 51 54.417444 -17 01 04.72885
 2018-Dec-24 04:40  m  13 51 54.546715 -17 01 04.87056
 2018-Dec-24 04:41  m  13 51 54.675973 -17 01 05.01230
 2018-Dec-24 04:42  m  13 51 54.805218 -17 01 05.15407
 2018-Dec-24 04:43  m  13 51 54.934451 -17 01 05.29585
 2018-Dec-24 04:44  m  13 51 55.063670 -17 01 05.43766
 2018-Dec-24 04:45  m  13 51 55.192877 -17 01 05.57949
 2018-Dec-24 04:46  m  13 51 55.322071 -17 01 05.72135
 2018-Dec-24 04:47  m  13 51 55.451252 -17 01 05.86323
 2018-Dec-24 04:48  m  13 51 55.580420 -17 01 06.00513
 2018-Dec-24 04:49  m  13 51 55.709576 -17 01 06.14705
 2018-Dec-24 04:50  m  13 51 55.838718 -17 01 06.28899
 2018-Dec-24 04:51  m  13 51 55.967847 -17 01 06.43096
 2018-Dec-24 04:52  m  13 51 56.096963 -17 01 06.57295
 2018-Dec-24 04:53  m  13 51 56.226066 -17 01 06.71496
 2018-Dec-24 04:54  m  13 51 56.355157 -17 01 06.85698
 2018-Dec-24 04:55  m  13 51 56.484234 -17 01 06.99903
 2018-Dec-24 04:56  m  13 51 56.613297 -17 01 07.14111
 2018-Dec-24 04:57  m  13 51 56.742348 -17 01 07.28320
 2018-Dec-24 04:58  m  13 51 56.871386 -17 01 07.42531
 2018-Dec-24 04:59  m  13 51 57.000410 -17 01 07.56744
 2018-Dec-24 05:00  m  13 51 57.129421 -17 01 07.70959
 2018-Dec-24 05:01  m  13 51 57.258419 -17 01 07.85176
 2018-Dec-24 05:02  m  13 51 57.387404 -17 01 07.99395
 2018-Dec-24 05:03  m  13 51 57.516375 -17 01 08.13615
 2018-Dec-24 05:04  m  13 51 57.645333 -17 01 08.27838
 2018-Dec-24 05:05  m  13 51 57.774278 -17 01 08.42062
 2018-Dec-24 05:06  m  13 51 57.903209 -17 01 08.56289
 2018-Dec-24 05:07  m  13 51 58.032128 -17 01 08.70517
 2018-Dec-24 05:08  m  13 51 58.161032 -17 01 08.84746
 2018-Dec-24 05:09  m  13 51 58.289924 -17 01 08.98978
 2018-Dec-24 05:10  m  13 51 58.418801 -17 01 09.13211
 2018-Dec-24 05:11  m  13 51 58.547666 -17 01 09.27446
 2018-Dec-24 05:12  m  13 51 58.676517 -17 01 09.41682
 2018-Dec-24 05:13  m  13 51 58.805354 -17 01 09.55921
 2018-Dec-24 05:14  m  13 51 58.934178 -17 01 09.70160
 2018-Dec-24 05:15  m  13 51 59.062989 -17 01 09.84402
 2018-Dec-24 05:16  m  13 51 59.191786 -17 01 09.98645
 2018-Dec-24 05:17  m  13 51 59.320569 -17 01 10.12889
 2018-Dec-24 05:18  m  13 51 59.449339 -17 01 10.27135
 2018-Dec-24 05:19  m  13 51 59.578095 -17 01 10.41383
 2018-Dec-24 05:20  m  13 51 59.706838 -17 01 10.55632
 2018-Dec-24 05:21  m  13 51 59.835567 -17 01 10.69882
 2018-Dec-24 05:22  m  13 51 59.964282 -17 01 10.84134
 2018-Dec-24 05:23  m  13 52 00.092984 -17 01 10.98387
 2018-Dec-24 05:24  m  13 52 00.221672 -17 01 11.12642
 2018-Dec-24 05:25  m  13 52 00.350346 -17 01 11.26898
 2018-Dec-24 05:26  m  13 52 00.479007 -17 01 11.41155
 2018-Dec-24 05:27  m  13 52 00.607654 -17 01 11.55413
 2018-Dec-24 05:28  m  13 52 00.736287 -17 01 11.69673
 2018-Dec-24 05:29  m  13 52 00.864906 -17 01 11.83934
 2018-Dec-24 05:30  m  13 52 00.993512 -17 01 11.98196
 2018-Dec-24 05:31  m  13 52 01.122104 -17 01 12.12460
 2018-Dec-24 05:32  m  13 52 01.250682 -17 01 12.26724
 2018-Dec-24 05:33  r  13 52 01.379246 -17 01 12.40990
 2018-Dec-24 05:34  m  13 52 01.507797 -17 01 12.55257
 2018-Dec-24 05:35  m  13 52 01.636333 -17 01 12.69525
 2018-Dec-24 05:36  m  13 52 01.764856 -17 01 12.83794
 2018-Dec-24 05:37  m  13 52 01.893365 -17 01 12.98064
 2018-Dec-24 05:38  m  13 52 02.021860 -17 01 13.12335
 2018-Dec-24 05:39  m  13 52 02.150341 -17 01 13.26607
 2018-Dec-24 05:40  m  13 52 02.278809 -17 01 13.40880
 2018-Dec-24 05:41  m  13 52 02.407262 -17 01 13.55154
 2018-Dec-24 05:42  m  13 52 02.535701 -17 01 13.69429
 2018-Dec-24 05:43  m  13 52 02.664127 -17 01 13.83704
 2018-Dec-24 05:44  m  13 52 02.792538 -17 01 13.97981
 2018-Dec-24 05:45  m  13 52 02.920936 -17 01 14.12258
 2018-Dec-24 05:46  m  13 52 03.049320 -17 01 14.26537
 2018-Dec-24 05:47  m  13 52 03.177689 -17 01 14.40816
 2018-Dec-24 05:48  m  13 52 03.306045 -17 01 14.55095
 2018-Dec-24 05:49  m  13 52 03.434387 -17 01 14.69376
 2018-Dec-24 05:50  m  13 52 03.562714 -17 01 14.83657
 2018-Dec-24 05:51  m  13 52 03.691028 -17 01 14.97939
 2018-Dec-24 05:52  m  13 52 03.819328 -17 01 15.12222
 2018-Dec-24 05:53  m  13 52 03.947613 -17 01 15.26505
 2018-Dec-24 05:54  m  13 52 04.075885 -17 01 15.40789
 2018-Dec-24 05:55  m  13 52 04.204142 -17 01 15.55073
 2018-Dec-24 05:56  m  13 52 04.332386 -17 01 15.69358
 2018-Dec-24 05:57  m  13 52 04.460615 -17 01 15.83643
 2018-Dec-24 05:58  m  13 52 04.588830 -17 01 15.97929
 2018-Dec-24 05:59  m  13 52 04.717032 -17 01 16.12216
 2018-Dec-24 06:00  m  13 52 04.845219 -17 01 16.26503
 2018-Dec-24 06:01  m  13 52 04.973392 -17 01 16.40790
 2018-Dec-24 06:02  m  13 52 05.101551 -17 01 16.55078
